STARLINK-1838
1 27129C 20088H   21325.13040840  .00000714  00000-0  47820-4 0  3254
2 27129  53.0517 137.6444 0001729  79.0262 312.2614 15.06394390    10
